*******************************************************************************
 Revised: April 12, 2021                 Earth                              399
 
 GEOPHYSICAL PROPERTIES (revised May 9, 2022):
  Vol. Mean Radius (km)    = 6371.01+-0.02   Mass x10^24 (kg)= 5.97219+-0.0006
  Equ. radius, km          = 6378.137        Mass layers:
  Polar axis, km           = 6356.752          Atmos         = 5.1   x 10^18 kg
  Flattening               = 1/298.257223563   oceans        = 1.4   x 10^21 kg
  Density, g/cm^3          = 5.51              crust         = 2.6   x 10^22 kg
  J2 (IERS 2010)           = 0.00108262545     mantle        = 4.043 x 10^24 kg
  g_p, m/s^2  (polar)      = 9.8321863685      outer core    = 1.835 x 10^24 kg
  g_e, m/s^2  (equatorial) = 9.7803267715      inner core    = 9.675 x 10^22 kg
  g_o, m/s^2               = 9.82022         Fluid core rad  = 3480 km
  GM, km^3/s^2             = 398600.435436   Inner core rad  = 1215 km
  GM 1-sigma, km^3/s^2     =      0.0014     Escape velocity = 11.186 km/s
  Rot. Rate (rad/s)        = 0.00007292115   Surface area:
  Mean sidereal day, hr    = 23.9344695944     land          = 1.48 x 10^8 km
  Mean solar day 2000.0, s = 86400.002         sea           = 3.62 x 10^8 km
  Mean solar day 1820.0, s = 86400.0         Love no., k2    = 0.299
  Moment of inertia        = 0.3308          Atm. pressure   = 1.0 bar
  Mean surface temp (Ts), K= 287.6           Volume, km^3    = 1.08321 x 10^12
  Mean effect. temp (Te), K= 255             Magnetic moment = 0.61 gauss Rp^3
  Geometric albedo         = 0.367           Vis. mag. V(1,0)= -3.86
  Solar Constant (W/m^2)   = 1367.6 (mean), 1414 (perihelion), 1322 (aphelion)
 HELIOCENTRIC ORBIT CHARACTERISTICS:
  Obliquity to orbit, deg  = 23.4392911  Sidereal orb period  = 1.0000174 y
  Orbital speed, km/s      = 29.79       Sidereal orb period  = 365.25636 d
  Mean daily motion, deg/d = 0.9856474   Hill's sphere radius = 234.9       
*******************************************************************************


*******************************************************************************
Ephemeris / WWW_USER Tue Sep 26 09:17:22 2023 Pasadena, USA      / Horizons
*******************************************************************************
Target body name: Earth (399)                     {source: DE441}
Center body name: Solar System Barycenter (0)     {source: DE441}
Center-site name: BODY CENTER
*******************************************************************************
Start time      : A.D. 2023-Jan-01 00:00:00.0000 TDB
Stop  time      : A.D. 2024-Jan-01 00:00:00.0000 TDB
Step-size       : 1440 minutes
*******************************************************************************
Center geodetic : 0.0, 0.0, 0.0                   {E-lon(deg),Lat(deg),Alt(km)}
Center cylindric: 0.0, 0.0, 0.0                   {E-lon(deg),Dxy(km),Dz(km)}
Center radii    : (undefined)
Output units    : AU-D
Calendar mode   : Mixed Julian/Gregorian
Output type     : GEOMETRIC cartesian states
Output format   : 3 (position, velocity, LT, range, range-rate)
Reference frame : Ecliptic of J2000.0
*******************************************************************************
JDTDB
   X     Y     Z
   VX    VY    VZ
   LT    RG    RR
*******************************************************************************
$$SOE
2460297.500000000 = A.D. 2023-Dec-19 00:00:00.0000 TDB 
 X = 5.253385768016411E-02 Y = 9.793029909284887E-01 Z = 1.574990027522775E-04
 VX=-1.744886192579473E-02 VY= 9.805778468805716E-04 VZ=-5.169479795033432E-07
 LT= 5.664114692635005E-03 RG= 9.807110578810556E-01 RR= 4.448477197075390E-05
2460298.500000000 = A.D. 2023-Dec-20 00:00:00.0000 TDB 
 X = 3.507737810935401E-02 Y = 9.801308501321573E-01 Z = 1.569491707336081E-04
 VX=-1.746318799526925E-02 VY= 6.751565559028444E-04 VZ=-5.769239674971858E-07
 LT= 5.664387797847937E-03 RG= 9.807583445828305E-01 RR= 5.014367762299606E-05
2460299.500000000 = A.D. 2023-Dec-21 00:00:00.0000 TDB 
 X = 1.760928285486542E-02 Y = 9.806533511931659E-01 Z = 1.563572478916860E-04
 VX=-1.747211037079617E-02 VY= 3.698757860928793E-04 VZ=-6.007089819578425E-07
 LT= 5.664694526957899E-03 RG= 9.808114530819052E-01 RR= 5.612546781365038E-05
2460300.500000000 = A.D. 2023-Dec-22 00:00:00.0000 TDB 
 X = 1.349257017400632E-04 Y = 9.808706728412907E-01 Z = 1.557602533041635E-04
 VX=-1.747572733761825E-02 VY= 6.480764409735934E-05 VZ=-5.870746956643945E-07
 LT= 5.665036676787595E-03 RG= 9.808706944884875E-01 RR= 6.240363953946706E-05
2460301.500000000 = A.D. 2023-Dec-23 00:00:00.0000 TDB 
 X =-1.734043229688485E-02 Y = 9.807830537915814E-01 Z = 1.551951867781594E-04
 VX=-1.747412517390015E-02 VY=-2.399991722499690E-04 VZ=-5.372479856768822E-07
 LT= 5.665415843522902E-03 RG= 9.809363451735942E-01 RR= 6.893584931676877E-05
2460302.500000000 = A.D. 2023-Dec-24 00:00:00.0000 TDB 
 X =-3.481160837331819E-02 Y = 9.803907719475693E-01 Z = 1.546967121602491E-04
 VX=-1.746737352719882E-02 VY=-5.445140429499698E-04 VZ=-4.546159008402084E-07
 LT= 5.665833342329993E-03 RG= 9.810086328511899E-01 RR= 7.566778805194589E-05
2460303.500000000 = A.D. 2023-Dec-25 00:00:00.0000 TDB 
 X =-5.227347972897943E-02 Y = 9.796941292454986E-01 Z = 1.542951881761638E-04
 VX=-1.745552229955847E-02 VY=-8.487184852852113E-04 VZ=-3.443266859167061E-07
 LT= 5.666290149970218E-03 RG= 9.810877266422595E-01 RR= 8.253728829923564E-05
2460304.500000000 = A.D. 2023-Dec-26 00:00:00.0000 TDB 
 X =-6.972096291805550E-02 Y = 9.786934426975820E-01 Z = 1.540151478238883E-04
 VX=-1.743860021242969E-02 VY=-1.152599738975808E-03 VZ=-2.127937517182537E-07
 LT= 5.666786871968431E-03 RG= 9.811737313901813E-01 RR= 8.947870961158394E-05
2460305.500000000 = A.D. 2023-Dec-27 00:00:00.0000 TDB 
 X =-8.714899276434206E-02 Y = 9.773890419168664E-01 Z = 1.538743119256091E-04
 VX=-1.741661534773975E-02 VY=-1.456144324430745E-03 VZ=-6.713110664999935E-08
 LT= 5.667323735443106E-03 RG= 9.812666864193001E-01 RR= 9.642737265133995E-05
2460306.500000000 = A.D. 2023-Dec-28 00:00:00.0000 TDB 
 X =-1.045525028458913E-01 Y = 9.757812727833974E-01 Z = 1.538831763257085E-04
 VX=-1.738955771314315E-02 VY=-1.759332345498939E-03 VZ= 8.541633947603364E-08
 LT= 5.667900606456848E-03 RG= 9.813665685390750E-01 RR= 1.033235116693675E-04
2460307.500000000 = A.D. 2023-Dec-29 00:00:00.0000 TDB 
 X =-1.219264093965835E-01 Y = 9.738705060880762E-01 Z = 1.540451369241926E-04
 VX=-1.735740339639138E-02 VY=-2.062133350207415E-03 VZ= 2.379650234325319E-07
 LT= 5.668517027296866E-03 RG= 9.814732984989928E-01 RR= 1.101151299837772E-04
2460308.500000000 = A.D. 2023-Dec-30 00:00:00.0000 TDB 
 X =-1.392655998094030E-01 Y = 9.716571493096537E-01 Z = 1.543570377566229E-04
 VX=-1.732011944906912E-02 VY=-2.364504245474035E-03 VZ= 3.843376253382680E-07
 LT= 5.669172266006395E-03 RG= 9.815867495646682E-01 RR= 1.167593475903056E-04
2460309.500000000 = A.D. 2023-Dec-31 00:00:00.0000 TDB 
 X =-1.565649259700618E-01 Y = 9.691416594374019E-01 Z = 1.548099754373813E-04
 VX=-1.727766850491775E-02 VY=-2.666389243061734E-03 VZ= 5.192296744776203E-07
 LT= 5.669865369171633E-03 RG= 9.817067566576185E-01 RR= 1.232222089156414E-04
2460310.500000000 = A.D. 2024-Jan-01 00:00:00.0000 TDB 
 X =-1.738192017257054E-01 Y = 9.663245550235138E-01 Z = 1.553901854897183E-04
 VX=-1.723001232538228E-02 VY=-2.967721342618870E-03 VZ= 6.382125383116755E-07
 LT= 5.670595209875435E-03 RG= 9.818331246581891E-01 RR= 1.294772790419658E-04
